     2.100          NAVIGATION                              RINEX VERSION / TYPE
fic2rin                                 05/22/2017 00:07:22 PGM / RUN BY / DATE
                                                            END OF HEADER
20 17  5 22  0  0  0.0  .473142601550D-03  .147792889038D-11  .000000000000D+00
     .850000000000D+02 -.630937500000D+02  .537629537285D-08 -.282838465042D+01
    -.322796404362D-05  .433370831888D-02  .874511897564D-05  .515367918587D+04
     .864000000000D+05  .912696123123D-07 -.144464371478D+01  .782310962677D-07
     .926558541854D+00  .192156250000D+03  .159941047924D+01 -.841820779500D-08
    -.505735351622D-09  .100000000000D+01  .195000000000D+04  .000000000000D+00
     .240000000000D+01  .000000000000D+00 -.838190317154D-08  .850000000000D+02
     .792060000000D+05  .400000000000D+01
21 17  5 22  0  0  0.0 -.505635514855D-03  .227373675443D-11  .000000000000D+00
     .670000000000D+02  .106250000000D+01  .576202572579D-08  .435555179056D+00
     .197440385818D-06  .239891710225D-01  .488571822643D-05  .515366992950D+04
     .864000000000D+05 -.327825546265D-06 -.243412008545D+01 -.707805156708D-07
     .939619455448D+00  .282312500000D+03 -.167126106872D+01 -.921538385773D-08
     .225009372544D-10  .100000000000D+01  .195000000000D+04  .000000000000D+00
     .340000000000D+01  .000000000000D+00 -.977888703346D-08  .670000000000D+02
     .792060000000D+05  .400000000000D+01
22 17  5 22  0  0  0.0  .255508348346D-05 -.121644916362D-10  .000000000000D+00
     .630000000000D+02 -.739062500000D+02  .537236663778D-08 -.244328127346D+01
    -.381655991077D-05  .753833039198D-02  .863708555698D-05  .515382438660D+04
     .864000000000D+05  .856816768646D-07 -.139340045645D+01 -.335276126862D-07
     .923259638178D+00  .189562500000D+03 -.173423101108D+01 -.836391981940D-08
    -.470376735936D-09  .100000000000D+01  .195000000000D+04  .000000000000D+00
     .240000000000D+01  .000000000000D+00 -.176951289177D-07  .630000000000D+02
     .792060000000D+05  .400000000000D+01
23 17  5 22  0  0  0.0 -.212192535400D-03 -.682121026330D-12  .000000000000D+00
     .500000000000D+02  .636562500000D+02  .459054835762D-08  .303634298312D+01
     .319629907608D-05  .117138670757D-01  .113118439913D-04  .515375110245D+04
     .864000000000D+05 -.279396772385D-07 -.309502627707D+00 -.158324837685D-06
     .944773653775D+00  .150875000000D+03 -.246423990829D+01 -.788211403597D-08
     .153934983439D-09  .100000000000D+01  .195000000000D+04  .000000000000D+00
     .240000000000D+01  .000000000000D+00 -.204890966415D-07  .500000000000D+02
     .792060000000D+05  .400000000000D+01
24 17  5 22  0  0  0.0 -.351509079337D-04 -.568434188608D-12  .000000000000D+00
     .360000000000D+02  .365000000000D+02  .513485674454D-08  .242308445759D+01
     .192224979401D-05  .565093103796D-02  .326707959175D-05  .515368737221D+04
     .864000000000D+05 -.106170773506D-06  .713469628177D+00 -.689178705215D-07
     .945558117262D+00  .307437500000D+03  .489671836706D+00 -.860857286733D-08
     .135719938995D-09  .100000000000D+01  .195000000000D+04  .000000000000D+00
     .240000000000D+01  .000000000000D+00  .279396772385D-08  .360000000000D+02
     .792060000000D+05  .400000000000D+01
25 17  5 22  0  0  0.0 -.391273759305D-03 -.659383658785D-11  .000000000000D+00
     .160000000000D+02 -.626250000000D+02  .416874507354D-08  .471586781128D+00
    -.345520675182D-05  .651865743566D-02  .895932316780D-05  .515359199142D+04
     .864000000000D+05  .186264514923D-08  .179623617066D+01  .800937414169D-07
     .976965995584D+00  .218406250000D+03  .810358742306D+00 -.806605026908D-08
    -.341799951626D-09  .100000000000D+01  .195000000000D+04  .000000000000D+00
     .240000000000D+01  .000000000000D+00  .558793544769D-08  .160000000000D+02
     .792060000000D+05  .400000000000D+01
26 17  5 22  0  0  0.0 -.501599628478D-03  .454747350886D-11  .000000000000D+00
     .310000000000D+02 -.790937500000D+02  .455876131928D-08 -.145494775047D+00
    -.396557152271D-05  .182696047705D-02  .824406743050D-05  .515370755005D+04
     .864000000000D+05  .484287738800D-07  .178090640425D+01 -.465661287308D-07
     .958739711357D+00  .217625000000D+03  .938423619396D-01 -.824605776712D-08
    -.296798077117D-09  .100000000000D+01  .195000000000D+04  .000000000000D+00
     .240000000000D+01  .000000000000D+00  .745058059692D-08  .310000000000D+02
     .792060000000D+05  .400000000000D+01
28 17  5 22  0  0  0.0  .614673364908D-03  .306954461848D-11  .000000000000D+00
     .450000000000D+02 -.562500000000D+02  .391337729359D-08 -.103619849385D+01
    -.269524753094D-05  .197302374290D-01  .897422432899D-05  .515365373993D+04
     .864000000000D+05 -.339001417160D-06  .187492492786D+01  .294297933578D-06
     .988333837511D+00  .228406250000D+03 -.157002073591D+01 -.807712215884D-08
    -.176078762959D-09  .100000000000D+01  .195000000000D+04  .000000000000D+00
     .240000000000D+01  .000000000000D+00 -.111758708954D-07  .450000000000D+02
     .792060000000D+05  .400000000000D+01
29 17  5 22  0  0  0.0  .602271407843D-03 -.341060513165D-11  .000000000000D+00
     .720000000000D+02  .345000000000D+02  .414445834761D-08 -.162459353873D+00
     .187195837498D-05  .710014486685D-03  .104382634163D-04  .515363039970D+04
     .864000000000D+05  .409781932831D-07  .289800563572D+01  .149011611938D-07
     .981364349490D+00  .192718750000D+03  .340388400806D+00 -.783889795014D-08
     .491449042254D-09  .100000000000D+01  .195000000000D+04  .000000000000D+00
     .240000000000D+01  .000000000000D+00 -.977888703346D-08  .720000000000D+02
     .792060000000D+05  .400000000000D+01
30 17  5 22  0  0  0.0  .156261026859D-03 -.102318153949D-11  .000000000000D+00
     .250000000000D+02  .303125000000D+02  .503592405216D-08  .160900121510D+01
     .161118805408D-05  .280829577241D-02  .308826565742D-05  .515367688751D+04
     .864000000000D+05  .186264514923D-08  .805838920848D+00  .428408384323D-07
     .948184448740D+00  .313312500000D+03  .308651281799D+01 -.857928593312D-08
     .467876631797D-10  .100000000000D+01  .195000000000D+04  .000000000000D+00
     .240000000000D+01  .000000000000D+00  .372529029846D-08  .250000000000D+02
     .792060000000D+05  .400000000000D+01
31 17  5 22  0  0  0.0  .199648551643D-03 -.238742359215D-11  .000000000000D+00
     .760000000000D+02  .331875000000D+02  .460947771753D-08  .137940916499D+01
     .180862843990D-05  .841539388057D-02  .344403088093D-05  .515369935417D+04
     .864000000000D+05  .130385160446D-07  .777752900850D+00  .176951289177D-06
     .967217353811D+00  .314468750000D+03 -.256148141598D+00 -.832963267692D-08
     .375015620906D-10  .100000000000D+01  .195000000000D+04  .000000000000D+00
     .240000000000D+01  .000000000000D+00 -.135041773319D-07  .760000000000D+02
     .792060000000D+05  .400000000000D+01
32 17  5 22  0  0  0.0 -.420027412474D-03 -.102318153949D-10  .000000000000D+00
     .300000000000D+02  .751562500000D+02  .434982404477D-08 -.122302882822D+01
     .382214784622D-05  .120699265972D-02  .113956630230D-04  .515372949219D+04
     .864000000000D+05  .137835741043D-06 -.308219707068D+00 -.651925802231D-07
     .958401854816D+00  .161500000000D+03 -.260769889239D+01 -.794247369305D-08
     .145006040084D-09  .100000000000D+01  .195000000000D+04  .000000000000D+00
     .240000000000D+01  .000000000000D+00  .465661287308D-09  .300000000000D+02
     .792060000000D+05  .400000000000D+01
